{
  "type": "FeatureCollection",
  "features": [
    {
      "type": "Feature",
      "properties": {
        "norad_id": 44873,
        "name": "CSG-1",
        "group": "resource",
        "lat": -48.334296148682,
        "lon": 173.53492647782937,
        "alt_km": 630.0907432709837,
        "timestamp": "2025-12-09T04:51:47.165293+00:00",
        "meta_object_name": "CSG-1",
        "meta_object_id": "2019-092A",
        "meta_epoch": "2025-12-08T19:21:43.562880",
        "meta_mean_motion": 14.82156816,
        "meta_eccentricity": 0.0001466,
        "meta_inclination": 97.8812,
        "meta_ra_of_asc_node": 164.1901,
        "meta_arg_of_pericenter": 85.899,
        "meta_mean_anomaly": 274.2391,
        "meta_ephemeris_type": 0,
        "meta_classification_type": "U",
        "meta_norad_cat_id": 44873,
        "meta_element_set_no": 999,
        "meta_rev_at_epoch": 32327,
        "meta_bstar": 0.00016739,
        "meta_mean_motion_dot": 1.281e-05,
        "meta_mean_motion_ddot": 0,
        "tle_line1": "1 44873U 19092A   25342.80675420  .00001281  00000+0  16739-3 0  9995",
        "tle_line2": "2 44873  97.8812 164.1901 0001466  85.8990 274.2391 14.82156816323278"
      },
      "geometry": {
        "type": "Point",
        "coordinates": [
          173.53492647782937,
          -48.334296148682
        ]
      }
    },
    {
      "type": "Feature",
      "properties": {
        "norad_id": 46277,
        "name": "NEMO-HD",
        "group": "resource",
        "lat": 82.66055787900551,
        "lon": -57.78315710239706,
        "alt_km": 436.7797851742298,
        "timestamp": "2025-12-09T04:51:47.165303+00:00",
        "meta_object_name": "NEMO-HD",
        "meta_object_id": "2020-061F",
        "meta_epoch": "2025-12-08T20:40:19.818336",
        "meta_mean_motion": 15.40204626,
        "meta_eccentricity": 0.000211,
        "meta_inclination": 97.2212,
        "meta_ra_of_asc_node": 42.0088,
        "meta_arg_of_pericenter": 61.0093,
        "meta_mean_anomaly": 299.1364,
        "meta_ephemeris_type": 0,
        "meta_classification_type": "U",
        "meta_norad_cat_id": 46277,
        "meta_element_set_no": 999,
        "meta_rev_at_epoch": 29264,
        "meta_bstar": 0.00037194,
        "meta_mean_motion_dot": 0.00014869,
        "meta_mean_motion_ddot": 0,
        "tle_line1": "1 46277U 20061F   25342.86134049  .00014869  00000+0  37194-3 0  9990",
        "tle_line2": "2 46277  97.2212  42.0088 0002110  61.0093 299.1364 15.40204626292643"
      },
      "geometry": {
        "type": "Point",
        "coordinates": [
          -57.78315710239706,
          82.66055787900551
        ]
      }
    },
    {
      "type": "Feature",
      "properties": {
        "norad_id": 46984,
        "name": "SENTINEL-6A",
        "group": "resource",
        "lat": -9.253133830340584,
        "lon": 165.50106625941413,
        "alt_km": 1339.823784442241,
        "timestamp": "2025-12-09T04:51:47.165313+00:00",
        "meta_object_name": "SENTINEL-6A",
        "meta_object_id": "2020-086A",
        "meta_epoch": "2025-12-08T19:32:48.276096",
        "meta_mean_motion": 12.80930444,
        "meta_eccentricity": 0.0007739,
        "meta_inclination": 66.0392,
        "meta_ra_of_asc_node": 170.4614,
        "meta_arg_of_pericenter": 269.2159,
        "meta_mean_anomaly": 90.797,
        "meta_ephemeris_type": 0,
        "meta_classification_type": "U",
        "meta_norad_cat_id": 46984,
        "meta_element_set_no": 999,
        "meta_rev_at_epoch": 23594,
        "meta_bstar": 4.3626e-05,
        "meta_mean_motion_dot": -5.1e-07,
        "meta_mean_motion_ddot": 0,
        "tle_line1": "1 46984U 20086A   25342.81444764 -.00000051  00000+0  43626-4 0  9992",
        "tle_line2": "2 46984  66.0392 170.4614 0007739 269.2159  90.7970 12.80930444235942"
      },
      "geometry": {
        "type": "Point",
        "coordinates": [
          165.50106625941413,
          -9.253133830340584
        ]
      }
    },
    {
      "type": "Feature",
      "properties": {
        "norad_id": 48079,
        "name": "GAOFEN-12 02",
        "group": "resource",
        "lat": -49.84177302204926,
        "lon": 147.65058723298196,
        "alt_km": 635.4344238598105,
        "timestamp": "2025-12-09T04:51:47.165323+00:00",
        "meta_object_name": "GAOFEN-12 02",
        "meta_object_id": "2021-026A",
        "meta_epoch": "2025-12-08T21:20:18.017088",
        "meta_mean_motion": 14.80668873,
        "meta_eccentricity": 0.0003455,
        "meta_inclination": 97.985,
        "meta_ra_of_asc_node": 336.9142,
        "meta_arg_of_pericenter": 108.489,
        "meta_mean_anomaly": 251.6698,
        "meta_ephemeris_type": 0,
        "meta_classification_type": "U",
        "meta_norad_cat_id": 48079,
        "meta_element_set_no": 999,
        "meta_rev_at_epoch": 25360,
        "meta_bstar": 0.00014646,
        "meta_mean_motion_dot": 1.073e-05,
        "meta_mean_motion_ddot": 0,
        "tle_line1": "1 48079U 21026A   25342.88909742  .00001073  00000+0  14646-3 0  9996",
        "tle_line2": "2 48079  97.9850 336.9142 0003455 108.4890 251.6698 14.80668873253607"
      },
      "geometry": {
        "type": "Point",
        "coordinates": [
          147.65058723298196,
          -49.84177302204926
        ]
      }
    },
    {
      "type": "Feature",
      "properties": {
        "norad_id": 48268,
        "name": "PLEIADES NEO 3",
        "group": "resource",
        "lat": -73.40893197527286,
        "lon": 83.45350034269572,
        "alt_km": 632.268126135893,
        "timestamp": "2025-12-09T04:51:47.165333+00:00",
        "meta_object_name": "PLEIADES NEO 3",
        "meta_object_id": "2021-034A",
        "meta_epoch": "2025-12-08T17:51:26.688096",
        "meta_mean_motion": 14.81674889,
        "meta_eccentricity": 0.0001321,
        "meta_inclination": 97.8951,
        "meta_ra_of_asc_node": 55.2426,
        "meta_arg_of_pericenter": 96.866,
        "meta_mean_anomaly": 263.2703,
        "meta_ephemeris_type": 0,
        "meta_classification_type": "U",
        "meta_norad_cat_id": 48268,
        "meta_element_set_no": 999,
        "meta_rev_at_epoch": 24945,
        "meta_bstar": 2.6373e-05,
        "meta_mean_motion_dot": 1.55e-06,
        "meta_mean_motion_ddot": 0,
        "tle_line1": "1 48268U 21034A   25342.74405889  .00000155  00000+0  26373-4 0  9994",
        "tle_line2": "2 48268  97.8951  55.2426 0001321  96.8660 263.2703 14.81674889249458"
      },
      "geometry": {
        "type": "Point",
        "coordinates": [
          83.45350034269572,
          -73.40893197527286
        ]
      }
    },
    {
      "type": "Feature",
      "properties": {
        "norad_id": 49070,
        "name": "PLEIADES NEO 4",
        "group": "resource",
        "lat": 73.29287626277637,
        "lon": -96.77221035629174,
        "alt_km": 616.0873189674612,
        "timestamp": "2025-12-09T04:51:47.165343+00:00",
        "meta_object_name": "PLEIADES NEO 4",
        "meta_object_id": "2021-073E",
        "meta_epoch": "2025-12-08T20:17:17.876256",
        "meta_mean_motion": 14.81675316,
        "meta_eccentricity": 0.0001382,
        "meta_inclination": 97.8951,
        "meta_ra_of_asc_node": 55.3382,
        "meta_arg_of_pericenter": 89.6388,
        "meta_mean_anomaly": 270.4983,
        "meta_ephemeris_type": 0,
        "meta_classification_type": "U",
        "meta_norad_cat_id": 49070,
        "meta_element_set_no": 999,
        "meta_rev_at_epoch": 23318,
        "meta_bstar": 0.00011977,
        "meta_mean_motion_dot": 8.91e-06,
        "meta_mean_motion_ddot": 0,
        "tle_line1": "1 49070U 21073E   25342.84534579  .00000891  00000+0  11977-3 0  9999",
        "tle_line2": "2 49070  97.8951  55.3382 0001382  89.6388 270.4983 14.81675316233185"
      },
      "geometry": {
        "type": "Point",
        "coordinates": [
          -96.77221035629174,
          73.29287626277637
        ]
      }
    },
    {
      "type": "Feature",
      "properties": {
        "norad_id": 49260,
        "name": "LANDSAT 9",
        "group": "resource",
        "lat": 71.73228718576947,
        "lon": 25.428611321600304,
        "alt_km": 694.8017133855674,
        "timestamp": "2025-12-09T04:51:47.165353+00:00",
        "meta_object_name": "LANDSAT 9",
        "meta_object_id": "2021-088A",
        "meta_epoch": "2025-12-08T18:38:17.407104",
        "meta_mean_motion": 14.57124879,
        "meta_eccentricity": 0.0001115,
        "meta_inclination": 98.2099,
        "meta_ra_of_asc_node": 50.9451,
        "meta_arg_of_pericenter": 94.391,
        "meta_mean_anomaly": 265.7416,
        "meta_ephemeris_type": 0,
        "meta_classification_type": "U",
        "meta_norad_cat_id": 49260,
        "meta_element_set_no": 999,
        "meta_rev_at_epoch": 22327,
        "meta_bstar": 0.00021494,
        "meta_mean_motion_dot": 9.24e-06,
        "meta_mean_motion_ddot": 0,
        "tle_line1": "1 49260U 21088A   25342.77659036  .00000924  00000+0  21494-3 0  9996",
        "tle_line2": "2 49260  98.2099  50.9451 0001115  94.3910 265.7416 14.57124879223273"
      },
      "geometry": {
        "type": "Point",
        "coordinates": [
          25.428611321600304,
          71.73228718576947
        ]
      }
    }
  ]
}